[
    {
        "Altitude(m)": 715046.1946532725,
        "Argument of Periapsis(deg)": 0.004556048474650827,
        "Eccentricity": 0.0,
        "Inclination(deg)": 45.0,
        "Latitude(deg)": -38.304313983083546,
        "Longitude(deg)": 57.92913964181748,
        "Mean Anomaly(deg)": -60.841213341007624,
        "RAAN(deg)": 209.9956992234167,
        "Satellite Name": "Constellation 1 942",
        "Satellite Number": 942,
        "Semi-Major Axis(m)": 7083131.272910544,
        "Time(s)": 76
    },
    {
        "Altitude(m)": 715035.2203842299,
        "Argument of Periapsis(deg)": 0.004615996480896233,
        "Eccentricity": 0.0,
        "Inclination(deg)": 45.0,
        "Latitude(deg)": -38.277719371137145,
        "Longitude(deg)": 57.994256707048606,
        "Mean Anomaly(deg)": -60.780512200757755,
        "RAAN(deg)": 209.99564263425114,
        "Satellite Name": "Constellation 1 942",
        "Satellite Number": 942,
        "Semi-Major Axis(m)": 7083131.272910544,
        "Time(s)": 77
    },
    {
        "Altitude(m)": 715024.2301316479,
        "Argument of Periapsis(deg)": 0.004675944487141638,
        "Eccentricity": 0.0,
        "Inclination(deg)": 45.0,
        "Latitude(deg)": -38.2510837962126,
        "Longitude(deg)": 58.059323391812356,
        "Mean Anomaly(deg)": -60.71981106050792,
        "RAAN(deg)": 209.9955860450856,
        "Satellite Name": "Constellation 1 942",
        "Satellite Number": 942,
        "Semi-Major Axis(m)": 7083131.272910544,
        "Time(s)": 78
    },
    {
        "Altitude(m)": 715013.2239354056,
        "Argument of Periapsis(deg)": 0.004735892493387044,
        "Eccentricity": 0.0,
        "Inclination(deg)": 45.0,
        "Latitude(deg)": -38.22440732614281,
        "Longitude(deg)": 58.1243397038371,
        "Mean Anomaly(deg)": -60.65910992025793,
        "RAAN(deg)": 209.99552945592,
        "Satellite Name": "Constellation 1 942",
        "Satellite Number": 942,
        "Semi-Major Axis(m)": 7083131.272910544,
        "Time(s)": 79
    },
    {
        "Altitude(m)": 715002.201835421,
        "Argument of Periapsis(deg)": 0.004795840499632449,
        "Eccentricity": 0.0,
        "Inclination(deg)": 45.0,
        "Latitude(deg)": -38.19769002873168,
        "Longitude(deg)": 58.189305651202446,
        "Mean Anomaly(deg)": -60.5984087800081,
        "RAAN(deg)": 209.99547286675445,
        "Satellite Name": "Constellation 1 942",
        "Satellite Number": 942,
        "Semi-Major Axis(m)": 7083131.272910544,
        "Time(s)": 80
    },
    {
        "Altitude(m)": 714991.1638716923,
        "Argument of Periapsis(deg)": 0.004855788505877855,
        "Eccentricity": 0.0,
        "Inclination(deg)": 45.0,
        "Latitude(deg)": -38.17093197175327,
        "Longitude(deg)": 58.25422124233862,
        "Mean Anomaly(deg)": -60.53770763975814,
        "RAAN(deg)": 209.9954162775889,
        "Satellite Name": "Constellation 1 942",
        "Satellite Number": 942,
        "Semi-Major Axis(m)": 7083131.272910544,
        "Time(s)": 81
    },
    {
        "Altitude(m)": 714980.1100842584,
        "Argument of Periapsis(deg)": 0.00491573651212326,
        "Eccentricity": 0.0,
        "Inclination(deg)": 45.0,
        "Latitude(deg)": -38.14413322295194,
        "Longitude(deg)": 58.31908631792759,
        "Mean Anomaly(deg)": -60.47700649950825,
        "RAAN(deg)": 209.99535968842332,
        "Satellite Name": "Constellation 1 942",
        "Satellite Number": 942,
        "Semi-Major Axis(m)": 7083131.272910544,
        "Time(s)": 82
    },
    {
        "Altitude(m)": 714969.0405132113,
        "Argument of Periapsis(deg)": 0.004975684518368666,
        "Eccentricity": 0.0,
        "Inclination(deg)": 45.0,
        "Latitude(deg)": -38.117293850040845,
        "Longitude(deg)": 58.38390122328935,
        "Mean Anomaly(deg)": -60.41630535925832,
        "RAAN(deg)": 209.99530309925774,
        "Satellite Name": "Constellation 1 942",
        "Satellite Number": 942,
        "Semi-Major Axis(m)": 7083131.272910544,
        "Time(s)": 83
    },
    {
        "Altitude(m)": 714957.955198694,
        "Argument of Periapsis(deg)": 0.005035632524614072,
        "Eccentricity": 0.0,
        "Inclination(deg)": 45.0,
        "Latitude(deg)": -38.090413920702915,
        "Longitude(deg)": 58.448665799799045,
        "Mean Anomaly(deg)": -60.35560421900842,
        "RAAN(deg)": 209.99524651009216,
        "Satellite Name": "Constellation 1 942",
        "Satellite Number": 942,
        "Semi-Major Axis(m)": 7083131.272910544,
        "Time(s)": 84
    },
    {
        "Altitude(m)": 714946.8541809169,
        "Argument of Periapsis(deg)": 0.0050955805308594785,
        "Eccentricity": 0.0,
        "Inclination(deg)": 45.0,
        "Latitude(deg)": -38.06349350258949,
        "Longitude(deg)": 58.513380057273466,
        "Mean Anomaly(deg)": -60.29490307875859,
        "RAAN(deg)": 209.9951899209266,
        "Satellite Name": "Constellation 1 942",
        "Satellite Number": 942,
        "Semi-Major Axis(m)": 7083131.272910544,
        "Time(s)": 85
    },
    {
        "Altitude(m)": 714935.7375001273,
        "Argument of Periapsis(deg)": 0.005155528537104883,
        "Eccentricity": 0.0,
        "Inclination(deg)": 45.0,
        "Latitude(deg)": -38.03653266332014,
        "Longitude(deg)": 58.578044005872265,
        "Mean Anomaly(deg)": -60.234201938508726,
        "RAAN(deg)": 209.99513333176105,
        "Satellite Name": "Constellation 1 942",
        "Satellite Number": 942,
        "Semi-Major Axis(m)": 7083131.272910544,
        "Time(s)": 86
    },
    {
        "Altitude(m)": 714924.6051966369,
        "Argument of Periapsis(deg)": 0.0052154765433502885,
        "Eccentricity": 0.0,
        "Inclination(deg)": 45.0,
        "Latitude(deg)": -38.00953147048219,
        "Longitude(deg)": 58.642657656097,
        "Mean Anomaly(deg)": -60.173500798258765,
        "RAAN(deg)": 209.99507674259547,
        "Satellite Name": "Constellation 1 942",
        "Satellite Number": 942,
        "Semi-Major Axis(m)": 7083131.272910544,
        "Time(s)": 87
    },
    {
        "Altitude(m)": 714913.4573108079,
        "Argument of Periapsis(deg)": 0.005275424549595694,
        "Eccentricity": 0.0,
        "Inclination(deg)": 45.0,
        "Latitude(deg)": -37.98248999163052,
        "Longitude(deg)": 58.707221018789035,
        "Mean Anomaly(deg)": -60.112799658008804,
        "RAAN(deg)": 209.9950201534299,
        "Satellite Name": "Constellation 1 942",
        "Satellite Number": 942,
        "Semi-Major Axis(m)": 7083131.272910544,
        "Time(s)": 88
    },
    {
        "Altitude(m)": 714902.2938830548,
        "Argument of Periapsis(deg)": 0.0053353725558411,
        "Eccentricity": 0.0,
        "Inclination(deg)": 45.0,
        "Latitude(deg)": -37.955408294287174,
        "Longitude(deg)": 58.77173393703169,
        "Mean Anomaly(deg)": -60.05209851775897,
        "RAAN(deg)": 209.99496356426434,
        "Satellite Name": "Constellation 1 942",
        "Satellite Number": 942,
        "Semi-Major Axis(m)": 7083131.272910544,
        "Time(s)": 89
    },
    {
        "Altitude(m)": 714891.1149538455,
        "Argument of Periapsis(deg)": 0.005395320562086505,
        "Eccentricity": 0.0,
        "Inclination(deg)": 45.0,
        "Latitude(deg)": -37.92828644594004,
        "Longitude(deg)": 58.836196758536616,
        "Mean Anomaly(deg)": -59.991397377509074,
        "RAAN(deg)": 209.99490697509876,
        "Satellite Name": "Constellation 1 942",
        "Satellite Number": 942,
        "Semi-Major Axis(m)": 7083131.272910544,
        "Time(s)": 90
    },
    {
        "Altitude(m)": 714879.9205636996,
        "Argument of Periapsis(deg)": 0.00545526856833191,
        "Eccentricity": 0.0,
        "Inclination(deg)": 45.0,
        "Latitude(deg)": -37.90112451404387,
        "Longitude(deg)": 58.900609327060536,
        "Mean Anomaly(deg)": -59.93069623725911,
        "RAAN(deg)": 209.9948503859332,
        "Satellite Name": "Constellation 1 942",
        "Satellite Number": 942,
        "Semi-Major Axis(m)": 7083131.272910544,
        "Time(s)": 91
    },
    {
        "Altitude(m)": 714868.7107531881,
        "Argument of Periapsis(deg)": 0.005515216574577317,
        "Eccentricity": 0.0,
        "Inclination(deg)": 45.0,
        "Latitude(deg)": -37.87392256601903,
        "Longitude(deg)": 58.9649716547914,
        "Mean Anomaly(deg)": -59.86999509700925,
        "RAAN(deg)": 209.99479379676762,
        "Satellite Name": "Constellation 1 942",
        "Satellite Number": 942,
        "Semi-Major Axis(m)": 7083131.272910544,
        "Time(s)": 92
    },
    {
        "Altitude(m)": 714857.4855629401,
        "Argument of Periapsis(deg)": 0.005575164580822722,
        "Eccentricity": 0.0,
        "Inclination(deg)": 45.0,
        "Latitude(deg)": -37.846680669251114,
        "Longitude(deg)": 59.02928375425041,
        "Mean Anomaly(deg)": -59.8092939567594,
        "RAAN(deg)": 209.99473720760207,
        "Satellite Name": "Constellation 1 942",
        "Satellite Number": 942,
        "Semi-Major Axis(m)": 7083131.272910544,
        "Time(s)": 93
    },
    {
        "Altitude(m)": 714846.2450336292,
        "Argument of Periapsis(deg)": 0.005635112587068129,
        "Eccentricity": 0.0,
        "Inclination(deg)": 45.0,
        "Latitude(deg)": -37.81939889109079,
        "Longitude(deg)": 59.093545638290415,
        "Mean Anomaly(deg)": -59.74859281650946,
        "RAAN(deg)": 209.99468061843652,
        "Satellite Name": "Constellation 1 942",
        "Satellite Number": 942,
        "Semi-Major Axis(m)": 7083131.272910544,
        "Time(s)": 94
    }
]